NORAD_CAT_ID,OBJECT_NAME,OBJECT_TYPE,EPOCH,MEAN_MOTION,ECCENTRICITY,INCLINATION,RA_OF_ASC_NODE,ARG_OF_PERICENTER,MEAN_ANOMALY,BSTAR,MEAN_MOTION_DOT,MEAN_MOTION_DDOT,TLE_LINE0,TLE_LINE1,TLE_LINE2,SEMIMAJOR_AXIS,PERIOD,APOGEE,PERIGEE,DECAYED
49742.0,STARLINK-3202,PAYLOAD,2022-06-01 20:00:01,15.08850332,0.0002297,53.2136,210.0816,33.5192,338.9518,-0.0019165,-0.0003067,0.0,0 STARLINK-3202,1 49742U 21115U   22152.83334491 -.00030670  00000-0 -19165-2 0  9995,2 49742  53.2136 210.0816 0002297  33.5192 338.9518 15.08850332  1305,6917.849,95.437,541.303,538.125,0.0
49742.0,STARLINK-3202,PAYLOAD,2022-06-03 03:44:27,15.08846984,0.0002334,53.2164,204.1445,41.4665,318.6504,1.376e-06,-2.66e-06,0.0,0 STARLINK-3202,1 49742U 21115U   22154.15586816 -.00000266  00000-0  13760-5 0  9997,2 49742  53.2164 204.1445 0002334  41.4665 318.6504 15.08846984 28984,6917.859,95.437,541.339,538.109,0.0
49742.0,STARLINK-3202,PAYLOAD,2022-06-03 10:05:59,15.08848733,0.0002344,53.2161,202.955,41.4248,318.6921,1.5159000000000009e-05,-4.7e-07,0.0,0 STARLINK-3202,1 49742U 21115U   22154.42082498 -.00000047  00000-0  15159-4 0  9994,2 49742  53.2161 202.9550 0002344  41.4248 318.6921 15.08848733 27911,6917.854,95.437,541.34,538.097,0.0
49742.0,STARLINK-3202,PAYLOAD,2022-06-03 14:52:09,15.08837702,0.0002338,53.2155,202.0624,38.0012,322.1145,-7.5769e-05,-1.494e-05,0.0,0 STARLINK-3202,1 49742U 21115U   22154.61955416 -.00001494  00000-0 -75769-4 0  9995,2 49742  53.2155 202.0624 0002338  38.0012 322.1145 15.08837702 29050,6917.887,95.438,541.37,538.135,0.0
49742.0,STARLINK-3202,PAYLOAD,2022-06-04 09:56:47,15.08831233,0.0002351,53.215,198.49400000000003,36.5205,323.5947,-1.2014e-05,-4.8e-06,0.0,0 STARLINK-3202,1 49742U 21115U   22155.41443800 -.00000480  00000-0 -12014-4 0  9991,2 49742  53.2150 198.4940 0002351  36.5205 323.5947 15.08831233 28064,6917.906999999997,95.438,541.399,538.146,0.0
49742.0,STARLINK-3202,PAYLOAD,2022-06-05 22:00:00,15.08821679,0.0002248,53.2137,191.7496,37.9881,206.4848,0.0020285,0.00032128,0.0,0 STARLINK-3202,1 49742U 21115U   22156.91667824  .00032128  00000-0  20285-2 0  9990,2 49742  53.2137 191.7496 0002248  37.9881 206.4848 15.08821679 29402,6917.936,95.439,541.357,538.246,0.0
49742.0,STARLINK-3202,PAYLOAD,2022-06-06 14:00:01,15.08828213,0.0002483,53.2134,188.7586,35.9188,231.7359,0.0016372,0.00025856,0.0,0 STARLINK-3202,1 49742U 21115U   22157.58334491  .00025856  00000-0  16372-2 0  9997,2 49742  53.2134 188.7586 0002483  35.9188 231.7359 15.08828213 29504,6917.916,95.438,541.499,538.064,0.0
49742.0,STARLINK-3202,PAYLOAD,2022-06-06 19:10:40,15.08838512,0.0002428,53.2154,187.7884,38.6366,321.4799,7.9613e-05,9.79e-06,0.0,0 STARLINK-3202,1 49742U 21115U   22157.79907833  .00000979  00000-0  79613-4 0  9994,2 49742  53.2154 187.7884 0002428  38.6366 321.4799 15.08838512 28421,6917.885,95.438,541.43,538.07,0.0
49742.0,STARLINK-3202,PAYLOAD,2022-06-07 03:07:35,15.0884041,0.0002419,53.2155,186.3013,39.1222,320.9944,8.1146e-05,1.003e-05,0.0,0 STARLINK-3202,1 49742U 21115U   22158.13027723  .00001003  00000-0  81146-4 0  9997,2 49742  53.2155 186.3013 0002419  39.1222 320.9944 15.08840410 29582,6917.879,95.438,541.418,538.071,0.0
49742.0,STARLINK-3202,PAYLOAD,2022-06-07 07:53:45,15.08842156,0.0002437,53.2154,185.4091,39.4611,320.6559,7.2152e-05,8.599999999999999e-06,0.0,0 STARLINK-3202,1 49742U 21115U   22158.32899613  .00000860  00000-0  72152-4 0  9990,2 49742  53.2154 185.4091 0002437  39.4611 320.6559 15.08842156 28501,6917.874,95.437,541.425,538.053,0.0
49742.0,STARLINK-3202,PAYLOAD,2022-06-07 19:01:27,15.08844339,0.0002482,53.2156,183.3276,40.5464,319.5713,8.1556e-05,1.01e-05,0.0,0 STARLINK-3202,1 49742U 21115U   22158.79267379  .00001010  00000-0  81556-4 0  9995,2 49742  53.2156 183.3276 0002482  40.5464 319.5713 15.08844339 28575,6917.8669999999975,95.437,541.4490000000002,538.015,0.0
49742.0,STARLINK-3202,PAYLOAD,2022-06-08 07:44:31,15.08848511,0.0002488,53.2154,180.9484,41.1803,318.9377,8.599700000000001e-05,1.081e-05,0.0,0 STARLINK-3202,1 49742U 21115U   22159.32258907  .00001081  00000-0  85997-4 0  9993,2 49742  53.2154 180.9484 0002488  41.1803 318.9377 15.08848511 29764,6917.854,95.437,541.441,537.998,0.0
49742.0,STARLINK-3202,PAYLOAD,2022-06-08 18:52:13,15.08848055,0.0002503,53.2151,178.8667,41.6918,318.4264,6.4756e-05,7.43e-06,0.0,0 STARLINK-3202,1 49742U 21115U   22159.78626763  .00000743  00000-0  64756-4 0  9996,2 49742  53.2151 178.8667 0002503  41.6918 318.4264 15.08848055 28728,6917.856,95.437,541.452,537.989,0.0
49742.0,STARLINK-3202,PAYLOAD,2022-06-09 04:24:32,15.08839324,0.0002563999999999,53.2152,177.0827,44.0823,316.0374,-2.2891e-05,-6.53e-06,0.0,0 STARLINK-3202,1 49742U 21115U   22160.18371516 -.00000653  00000-0 -22891-4 0  9991,2 49742  53.2152 177.0827 0002564  44.0823 316.0374 15.08839324 29891,6917.882,95.438,541.521,537.974,0.0
49742.0,STARLINK-3202,PAYLOAD,2022-06-09 10:46:05,15.08837184,0.0002559,53.2151,175.8931,44.6075,315.5123,-4.1635e-05,-9.51e-06,0.0,0 STARLINK-3202,1 49742U 21115U   22160.44867692 -.00000951  00000-0 -41635-4 0  9993,2 49742  53.2151 175.8931 0002559  44.6075 315.5123 15.08837184 28821,6917.889,95.438,541.524,537.984,0.0
49742.0,STARLINK-3202,PAYLOAD,2022-06-10 07:26:06,15.08841038,0.0002625,53.2155,172.0279,44.4764,315.6438,-3.0991e-05,-7.82e-06,0.0,0 STARLINK-3202,1 49742U 21115U   22161.30979366 -.00000782  00000-0 -30991-4 0  9996,2 49742  53.2155 172.0279 0002625  44.4764 315.6438 15.08841038 30068,6917.877,95.437,541.558,537.9259999999998,0.0
49742.0,STARLINK-3202,PAYLOAD,2022-06-10 10:36:52,15.08839317,0.0002597,53.2146,171.4331,43.2797,316.8399,-4.157100000000001e-05,-9.5e-06,0.0,0 STARLINK-3202,1 49742U 21115U   22161.44227499 -.00000950  00000-0 -41571-4 0  9997,2 49742  53.2146 171.4331 0002597  43.2797 316.8399 15.08839317 28974,6917.882,95.438,541.544,537.951,0.0
49742.0,STARLINK-3202,PAYLOAD,2022-06-10 20:09:11,15.08834601,0.0002587,53.2148,169.6485,41.8267,318.2922,7.003e-05,8.26e-06,0.0,0 STARLINK-3202,1 49742U 21115U   22161.83971346  .00000826  00000-0  70030-4 0  9999,2 49742  53.2148 169.6485 0002587  41.8267 318.2922 15.08834601 29037,6917.897,95.438,541.552,537.972,0.0
49742.0,STARLINK-3202,PAYLOAD,2022-06-11 16:49:11,15.08838882,0.000263,53.2149,165.7826,43.7598,316.3602,7.695899999999999e-05,9.37e-06,0.0,0 STARLINK-3202,1 49742U 21115U   22162.70083301  .00000937  00000-0  76959-4 0  9990,2 49742  53.2149 165.7826 0002630  43.7598 316.3602 15.08838882 30278,6917.884,95.438,541.568,537.929,0.0
49742.0,STARLINK-3202,PAYLOAD,2022-06-11 19:59:58,15.08839788,0.000263,53.2149,165.1878,43.81,316.31,8.4225e-05,1.052e-05,0.0,0 STARLINK-3202,1 49742U 21115U   22162.83331248  .00001052  00000-0  84225-4 0  9994,2 49742  53.2149 165.1878 0002630  43.8100 316.3100 15.08839788 29186,6917.880999999999,95.438,541.565,537.927,0.0
49742.0,STARLINK-3202,PAYLOAD,2022-06-12 07:07:40,15.08842081,0.0002662,53.2148,163.106,44.7981,315.3226,8.3018e-05,1.033e-05,0.0,0 STARLINK-3202,1 49742U 21115U   22163.29699106  .00001033  00000-0  83018-4 0  9993,2 49742  53.2148 163.1060 0002662  44.7981 315.3226 15.08842081 29254,6917.874,95.437,541.581,537.8969999999998,0.0
49742.0,STARLINK-3202,PAYLOAD,2022-06-12 16:39:59,15.08830843,0.0002672,53.2149,161.3222,45.1635,314.9573,-2.0784e-05,-6.19e-06,0.0,0 STARLINK-3202,1 49742U 21115U   22163.69444233 -.00000619  00000-0 -20784-4 0  9998,2 49742  53.2149 161.3222 0002672  45.1635 314.9573 15.08830843 30421,6917.908,95.438,541.622,537.925,0.0
49742.0,STARLINK-3202,PAYLOAD,2022-06-13 06:58:28,15.0883241,0.0002643,53.2153,158.6463,46.301,313.82,-2.2119e-05,-6.4e-06,0.0,0 STARLINK-3202,1 49742U 21115U   22164.29060401 -.00000640  00000-0 -22119-4 0  9994,2 49742  53.2153 158.6463 0002643  46.3010 313.8200 15.08832410 29403,6917.904,95.438,541.597,537.94,0.0
49742.0,STARLINK-3202,PAYLOAD,2022-06-13 16:30:46,15.08834924,0.000267,53.2154,156.862,46.6233,313.4981,-8.209099999999999e-06,-4.19e-06,0.0,0 STARLINK-3202,1 49742U 21115U   22164.68804353 -.00000419  00000-0 -82091-5 0  9999,2 49742  53.2154 156.8620 0002670  46.6233 313.4981 15.08834924 29469,6917.896,95.438,541.6080000000002,537.914,0.0
49742.0,STARLINK-3202,PAYLOAD,2022-06-14 05:13:51,15.08838945,0.0002699,53.2154,154.4828,47.1304,312.9915,1.6785e-05,-2.1e-07,0.0,0 STARLINK-3202,1 49742U 21115U   22165.21796255 -.00000021  00000-0  16785-4 0  9994,2 49742  53.2154 154.4828 0002699  47.1304 312.9915 15.08838945 30650,6917.884,95.438,541.616,537.881,0.0
49742.0,STARLINK-3202,PAYLOAD,2022-06-14 08:24:38,15.08840056,0.000272,53.2153,153.8881,47.2037,312.9183,1.4328e-05,-6.1e-07,0.0,0 STARLINK-3202,1 49742U 21115U   22165.35044210 -.00000061  00000-0  14328-4 0  9991,2 49742  53.2153 153.8881 0002720  47.2037 312.9183 15.08840056 29561,6917.88,95.438,541.627,537.864,0.0
49742.0,STARLINK-3202,PAYLOAD,2022-06-14 16:21:33,15.08836611,0.0002739,53.2154,152.401,47.6642,312.4581,8.4953e-05,1.064e-05,0.0,0 STARLINK-3202,1 49742U 21115U   22165.68164273  .00001064  00000-0  84953-4 0  9993,2 49742  53.2154 152.4010 0002739  47.6642 312.4581 15.08836611 29612,6917.891,95.438,541.651,537.861,0.0
49742.0,STARLINK-3202,PAYLOAD,2022-06-15 06:40:01,15.08840669,0.0002767,53.2156,149.7242,48.6839,311.4391,0.0001348,1.858e-05,0.0,0 STARLINK-3202,1 49742U 21115U   22166.27780053  .00001858  00000-0  13480-3 0  9996,2 49742  53.2156 149.7242 0002767  48.6839 311.4391 15.08840669 30810,6917.878000000002,95.438,541.658,537.8290000000002,0.0
49742.0,STARLINK-3202,PAYLOAD,2022-06-15 17:47:43,15.08846244,0.0002811,53.2152,147.643,49.5129,310.6108,0.00015592,2.194e-05,0.0,0 STARLINK-3202,1 49742U 21115U   22166.74147648  .00002194  00000-0  15592-3 0  9995,2 49742  53.2152 147.6430 0002811  49.5129 310.6108 15.08846244 29779,6917.861,95.437,541.6709999999998,537.7819999999998,0.0
